{
  "type": "FeatureCollection",
  "features": [
    {
      "type": "Feature",
      "properties": {
        "norad_id": 22675,
        "name": "COSMOS 2251",
        "group": "cosmos-2251-debris",
        "lat": 2.720960262274952,
        "lon": -59.16225447385525,
        "alt_km": 766.63422197,
        "timestamp": "2025-12-21T09:37:23.047237+00:00",
        "meta_object_name": "COSMOS 2251",
        "meta_object_id": "1993-036A",
        "meta_epoch": "2025-12-21T04:35:03.321888",
        "meta_mean_motion": 14.33206987,
        "meta_eccentricity": 0.0024295,
        "meta_inclination": 74.04,
        "meta_ra_of_asc_node": 300.4419,
        "meta_arg_of_pericenter": 20.344,
        "meta_mean_anomaly": 339.8673,
        "meta_ephemeris_type": 0,
        "meta_classification_type": "U",
        "meta_norad_cat_id": 22675,
        "meta_element_set_no": 999,
        "meta_rev_at_epoch": 69894,
        "meta_bstar": 3.4899e-05,
        "meta_mean_motion_dot": 7e-07,
        "meta_mean_motion_ddot": 0,
        "tle_line1": "1 22675U 93036A   25355.19101067  .00000070  00000+0  34899-4 0  9991",
        "tle_line2": "2 22675  74.0400 300.4419 0024295  20.3440 339.8673 14.33206987698943"
      },
      "geometry": {
        "type": "Point",
        "coordinates": [
          -59.16225447385525,
          2.720960262274952
        ]
      }
    },
    {
      "type": "Feature",
      "properties": {
        "norad_id": 33757,
        "name": "COSMOS 2251 DEB",
        "group": "cosmos-2251-debris",
        "lat": 21.551158114833317,
        "lon": -45.711334977807276,
        "alt_km": 777.4705540955829,
        "timestamp": "2025-12-21T09:37:23.047262+00:00",
        "meta_object_name": "COSMOS 2251 DEB",
        "meta_object_id": "1993-036E",
        "meta_epoch": "2025-12-21T05:01:38.063712",
        "meta_mean_motion": 14.3258292,
        "meta_eccentricity": 0.0015547,
        "meta_inclination": 74.0374,
        "meta_ra_of_asc_node": 308.1474,
        "meta_arg_of_pericenter": 320.0495,
        "meta_mean_anomaly": 155.1671,
        "meta_ephemeris_type": 0,
        "meta_classification_type": "U",
        "meta_norad_cat_id": 33757,
        "meta_element_set_no": 999,
        "meta_rev_at_epoch": 88117,
        "meta_bstar": 2.9891e-05,
        "meta_mean_motion_dot": 5.5e-07,
        "meta_mean_motion_ddot": 0,
        "tle_line1": "1 33757U 93036E   25355.20946833  .00000055  00000+0  29891-4 0  9993",
        "tle_line2": "2 33757  74.0374 308.1474 0015547 320.0495 155.1671 14.32582920881171"
      },
      "geometry": {
        "type": "Point",
        "coordinates": [
          -45.711334977807276,
          21.551158114833317
        ]
      }
    },
    {
      "type": "Feature",
      "properties": {
        "norad_id": 33758,
        "name": "COSMOS 2251 DEB",
        "group": "cosmos-2251-debris",
        "lat": -20.01262111384345,
        "lon": 24.70414727798359,
        "alt_km": 719.7670808281919,
        "timestamp": "2025-12-21T09:37:23.047277+00:00",
        "meta_object_name": "COSMOS 2251 DEB",
        "meta_object_id": "1993-036F",
        "meta_epoch": "2025-12-21T00:58:39.548064",
        "meta_mean_motion": 14.51638042,
        "meta_eccentricity": 0.00172,
        "meta_inclination": 74.0264,
        "meta_ra_of_asc_node": 199.3942,
        "meta_arg_of_pericenter": 265.5651,
        "meta_mean_anomaly": 213.618,
        "meta_ephemeris_type": 0,
        "meta_classification_type": "U",
        "meta_norad_cat_id": 33758,
        "meta_element_set_no": 999,
        "meta_rev_at_epoch": 88425,
        "meta_bstar": 0.00049693,
        "meta_mean_motion_dot": 1.968e-05,
        "meta_mean_motion_ddot": 0,
        "tle_line1": "1 33758U 93036F   25355.04073551  .00001968  00000+0  49693-3 0  9999",
        "tle_line2": "2 33758  74.0264 199.3942 0017200 265.5651 213.6180 14.51638042884250"
      },
      "geometry": {
        "type": "Point",
        "coordinates": [
          24.70414727798359,
          -20.01262111384345
        ]
      }
    },
    {
      "type": "Feature",
      "properties": {
        "norad_id": 33760,
        "name": "COSMOS 2251 DEB",
        "group": "cosmos-2251-debris",
        "lat": 5.719955611707685,
        "lon": -92.79555205801736,
        "alt_km": 760.2184629411295,
        "timestamp": "2025-12-21T09:37:23.047289+00:00",
        "meta_object_name": "COSMOS 2251 DEB",
        "meta_object_id": "1993-036H",
        "meta_epoch": "2025-12-21T05:07:40.644768",
        "meta_mean_motion": 14.3567774,
        "meta_eccentricity": 0.0020233,
        "meta_inclination": 74.0321,
        "meta_ra_of_asc_node": 265.9046,
        "meta_arg_of_pericenter": 2.1659,
        "meta_mean_anomaly": 116.2402,
        "meta_ephemeris_type": 0,
        "meta_classification_type": "U",
        "meta_norad_cat_id": 33760,
        "meta_element_set_no": 999,
        "meta_rev_at_epoch": 88246,
        "meta_bstar": 7.6755e-05,
        "meta_mean_motion_dot": 1.96e-06,
        "meta_mean_motion_ddot": 0,
        "tle_line1": "1 33760U 93036H   25355.21366487  .00000196  00000+0  76755-4 0  9996",
        "tle_line2": "2 33760  74.0321 265.9046 0020233   2.1659 116.2402 14.35677740882461"
      },
      "geometry": {
        "type": "Point",
        "coordinates": [
          -92.79555205801736,
          5.719955611707685
        ]
      }
    },
    {
      "type": "Feature",
      "properties": {
        "norad_id": 33761,
        "name": "COSMOS 2251 DEB",
        "group": "cosmos-2251-debris",
        "lat": 29.44586303994588,
        "lon": 46.79346730269268,
        "alt_km": 764.3096555703678,
        "timestamp": "2025-12-21T09:37:23.047300+00:00",
        "meta_object_name": "COSMOS 2251 DEB",
        "meta_object_id": "1993-036J",
        "meta_epoch": "2025-12-21T02:58:26.077152",
        "meta_mean_motion": 14.42566487,
        "meta_eccentricity": 0.0023261,
        "meta_inclination": 74.0352,
        "meta_ra_of_asc_node": 236.6074,
        "meta_arg_of_pericenter": 315.6638,
        "meta_mean_anomaly": 195.3572,
        "meta_ephemeris_type": 0,
        "meta_classification_type": "U",
        "meta_norad_cat_id": 33761,
        "meta_element_set_no": 999,
        "meta_rev_at_epoch": 88355,
        "meta_bstar": 0.00027683,
        "meta_mean_motion_dot": 8.95e-06,
        "meta_mean_motion_ddot": 0,
        "tle_line1": "1 33761U 93036J   25355.12391293  .00000895  00000+0  27683-3 0  9991",
        "tle_line2": "2 33761  74.0352 236.6074 0023261 315.6638 195.3572 14.42566487883555"
      },
      "geometry": {
        "type": "Point",
        "coordinates": [
          46.79346730269268,
          29.44586303994588
        ]
      }
    },
    {
      "type": "Feature",
      "properties": {
        "norad_id": 33762,
        "name": "COSMOS 2251 DEB",
        "group": "cosmos-2251-debris",
        "lat": -57.447048992850675,
        "lon": 140.82201890580248,
        "alt_km": 790.3982136993445,
        "timestamp": "2025-12-21T09:37:23.047311+00:00",
        "meta_object_name": "COSMOS 2251 DEB",
        "meta_object_id": "1993-036K",
        "meta_epoch": "2025-12-20T22:45:06.208992",
        "meta_mean_motion": 14.33666032,
        "meta_eccentricity": 0.0015345,
        "meta_inclination": 74.0421,
        "meta_ra_of_asc_node": 295.0198,
        "meta_arg_of_pericenter": 354.4677,
        "meta_mean_anomaly": 69.9411,
        "meta_ephemeris_type": 0,
        "meta_classification_type": "U",
        "meta_norad_cat_id": 33762,
        "meta_element_set_no": 999,
        "meta_rev_at_epoch": 88165,
        "meta_bstar": 3.6227e-05,
        "meta_mean_motion_dot": 7.4e-07,
        "meta_mean_motion_ddot": 0,
        "tle_line1": "1 33762U 93036K   25354.94798853  .00000074  00000+0  36227-4 0  9998",
        "tle_line2": "2 33762  74.0421 295.0198 0015345 354.4677  69.9411 14.33666032881651"
      },
      "geometry": {
        "type": "Point",
        "coordinates": [
          140.82201890580248,
          -57.447048992850675
        ]
      }
    },
    {
      "type": "Feature",
      "properties": {
        "norad_id": 33764,
        "name": "COSMOS 2251 DEB",
        "group": "cosmos-2251-debris",
        "lat": -22.607451837535315,
        "lon": 83.51115677893885,
        "alt_km": 749.0395721370787,
        "timestamp": "2025-12-21T09:37:23.047322+00:00",
        "meta_object_name": "COSMOS 2251 DEB",
        "meta_object_id": "1993-036M",
        "meta_epoch": "2025-12-21T04:24:13.381344",
        "meta_mean_motion": 14.39526271,
        "meta_eccentricity": 0.002356,
        "meta_inclination": 74.0335,
        "meta_ra_of_asc_node": 257.0656,
        "meta_arg_of_pericenter": 221.247,
        "meta_mean_anomaly": 295.738,
        "meta_ephemeris_type": 0,
        "meta_classification_type": "U",
        "meta_norad_cat_id": 33764,
        "meta_element_set_no": 999,
        "meta_rev_at_epoch": 88278,
        "meta_bstar": 0.00021592,
        "meta_mean_motion_dot": 6.49e-06,
        "meta_mean_motion_ddot": 0,
        "tle_line1": "1 33764U 93036M   25355.18348821  .00000649  00000+0  21592-3 0  9999",
        "tle_line2": "2 33764  74.0335 257.0656 0023560 221.2470 295.7380 14.39526271882789"
      },
      "geometry": {
        "type": "Point",
        "coordinates": [
          83.51115677893885,
          -22.607451837535315
        ]
      }
    }
  ]
}